{
  "schema_version": 8,
  "id": "builtin-dwarf-planets",
  "name": "Dwarf Planets",
  "epoch": "2026-06-14 00:00:00 TDB, JPL Horizons, solar-system barycentric",
  "description": "Built-in Dwarf Planets preset using SI units, JPL Horizons solar-system barycentric state vectors, heliocentric osculating orbital metadata, and curated physical metadata.",
  "groups": [
    {
      "id": "dwarf-planets-group",
      "name": "Dwarf Planets",
      "kind": "planetary_system",
      "body_ids": [
        "sun"
      ]
    }
  ],
  "bodies": [
    {
      "id": "sun",
      "name": "Sun",
      "kind": "star",
      "mass_kg": 1.988475e+30,
      "radius_m": 695700000.0,
      "position_m": [
        -288769470.3604101,
        -803783954.5016888,
        16290945.51431603
      ],
      "velocity_mps": [
        11.35852007958314,
        3.052838185233512,
        -0.2330129383221811
      ],
      "color": "#ffd166"
    },
    {
      "id": "neptune",
      "name": "Neptune",
      "kind": "planet",
      "mass_kg": 1.024092e+26,
      "radius_m": 24622000.0,
      "position_m": [
        4465848740570.349,
        154250163575.77432,
        -106096572172.2432
      ],
      "velocity_mps": [
        -223.1864305183416,
        5463.6895582390725,
        -108.0629239870325
      ],
      "color": "#4d75d9",
      "parent_id": "sun",
      "orbit": {
        "semi_major_axis_m": 4499589005622.51,
        "orbital_period_s": 5205616115.672687,
        "eccentricity": 0.01015084248774932,
        "inclination_deg": 1.775430091313966,
        "longitude_of_ascending_node_deg": 131.9883115310724,
        "argument_of_periapsis_deg": 280.2261347727232,
        "mean_anomaly_deg": 310.6769641133678,
        "epoch": "2026-06-14 00:00:00 TDB",
        "reference_plane": "J2000 ecliptic",
        "approximation_notes": "Horizons heliocentric osculating elements at the preset epoch; the committed Cartesian state remains the simulation seed."
      },
      "data_source": {
        "source_name": "JPL Horizons",
        "source_url": "https://ssd.jpl.nasa.gov/api/horizons.api?format=json&COMMAND=%27899%27&OBJ_DATA=NO&MAKE_EPHEM=YES&EPHEM_TYPE=ELEMENTS&CENTER=%27500%4010%27&TLIST=%272026-06-14+00%3A00%3A00%27&TLIST_TYPE=CAL&TIME_TYPE=TDB&OUT_UNITS=AU-D&CSV_FORMAT=YES&ELM_LABELS=NO",
        "catalog_id": "899",
        "retrieved_at": "2026-06-14",
        "citation": "JPL Horizons osculating elements and state vectors."
      }
    },
    {
      "id": "pluto",
      "name": "Pluto",
      "kind": "dwarf planet",
      "mass_kg": 1.303e+22,
      "radius_m": 1188300.0,
      "position_m": [
        2942504163239.284,
        -4411609399108.988,
        -379079938031.98553
      ],
      "velocity_mps": [
        4658.428973024263,
        1793.750433219713,
        -1530.495986740084
      ],
      "color": "#c9b39a",
      "parent_id": "sun",
      "orbit": {
        "semi_major_axis_m": 5824126260132.851,
        "orbital_period_s": 7666024836.451794,
        "eccentricity": 0.2447416742495381,
        "inclination_deg": 17.08239632223129,
        "longitude_of_ascending_node_deg": 110.2569744693702,
        "argument_of_periapsis_deg": 111.0856950945227,
        "mean_anomaly_deg": 56.01116303954694,
        "epoch": "2026-06-14 00:00:00 TDB",
        "reference_plane": "J2000 ecliptic",
        "approximation_notes": "Horizons heliocentric osculating elements at the preset epoch; the committed Cartesian state remains the simulation seed."
      },
      "data_source": {
        "source_name": "JPL Horizons",
        "source_url": "https://ssd.jpl.nasa.gov/api/horizons.api?format=json&COMMAND=%27999%27&OBJ_DATA=NO&MAKE_EPHEM=YES&EPHEM_TYPE=ELEMENTS&CENTER=%27500%4010%27&TLIST=%272026-06-14+00%3A00%3A00%27&TLIST_TYPE=CAL&TIME_TYPE=TDB&OUT_UNITS=AU-D&CSV_FORMAT=YES&ELM_LABELS=NO",
        "catalog_id": "999",
        "retrieved_at": "2026-06-14",
        "citation": "JPL Horizons osculating elements and state vectors."
      }
    },
    {
      "id": "eris",
      "name": "Eris",
      "kind": "dwarf planet",
      "mass_kg": 1.638e+22,
      "radius_m": 1163000.0,
      "position_m": [
        12735770497475.559,
        5923842794868.449,
        -2594890931098.099
      ],
      "velocity_mps": [
        -824.0245470413896,
        1481.1363613338551,
        1624.5630777875879
      ],
      "color": "#d8d6cf",
      "parent_id": "sun",
      "orbit": {
        "semi_major_axis_m": 10162543046244.629,
        "orbital_period_s": 17669637853.379814,
        "eccentricity": 0.4382659351531148,
        "inclination_deg": 43.92725329015045,
        "longitude_of_ascending_node_deg": 36.00421290052992,
        "argument_of_periapsis_deg": 150.7972430074441,
        "mean_anomaly_deg": 211.7806498454532,
        "epoch": "2026-06-14 00:00:00 TDB",
        "reference_plane": "J2000 ecliptic",
        "approximation_notes": "Horizons heliocentric osculating elements at the preset epoch; the committed Cartesian state remains the simulation seed."
      },
      "data_source": {
        "source_name": "JPL Horizons",
        "source_url": "https://ssd.jpl.nasa.gov/api/horizons.api?format=json&COMMAND=%27136199%3B%27&OBJ_DATA=NO&MAKE_EPHEM=YES&EPHEM_TYPE=ELEMENTS&CENTER=%27500%4010%27&TLIST=%272026-06-14+00%3A00%3A00%27&TLIST_TYPE=CAL&TIME_TYPE=TDB&OUT_UNITS=AU-D&CSV_FORMAT=YES&ELM_LABELS=NO",
        "catalog_id": "136199;",
        "retrieved_at": "2026-06-14",
        "citation": "JPL Horizons osculating elements and state vectors."
      }
    },
    {
      "id": "haumea",
      "name": "Haumea",
      "kind": "dwarf planet",
      "mass_kg": 3.95244e+21,
      "radius_m": 772000.0,
      "position_m": [
        -5504744725945.306,
        -3575382744133.407,
        3519676660439.287
      ],
      "velocity_mps": [
        2429.740906201463,
        -3018.164123528742,
        -249.2476468587499
      ],
      "color": "#e5e0d0",
      "parent_id": "sun",
      "orbit": {
        "semi_major_axis_m": 6441939156031.911,
        "orbital_period_s": 8917620350.057848,
        "eccentricity": 0.1944127290354019,
        "inclination_deg": 28.20847297824014,
        "longitude_of_ascending_node_deg": 121.786164792562,
        "argument_of_periapsis_deg": 240.6838234239625,
        "mean_anomaly_deg": 223.23460670227,
        "epoch": "2026-06-14 00:00:00 TDB",
        "reference_plane": "J2000 ecliptic",
        "approximation_notes": "Horizons heliocentric osculating elements at the preset epoch; the committed Cartesian state remains the simulation seed."
      },
      "data_source": {
        "source_name": "JPL Horizons",
        "source_url": "https://ssd.jpl.nasa.gov/api/horizons.api?format=json&COMMAND=%27136108%3B%27&OBJ_DATA=NO&MAKE_EPHEM=YES&EPHEM_TYPE=ELEMENTS&CENTER=%27500%4010%27&TLIST=%272026-06-14+00%3A00%3A00%27&TLIST_TYPE=CAL&TIME_TYPE=TDB&OUT_UNITS=AU-D&CSV_FORMAT=YES&ELM_LABELS=NO",
        "catalog_id": "136108;",
        "retrieved_at": "2026-06-14",
        "citation": "JPL Horizons osculating elements and state vectors."
      }
    },
    {
      "id": "makemake",
      "name": "Makemake",
      "kind": "dwarf planet",
      "mass_kg": 2.69e+21,
      "radius_m": 715000.0,
      "position_m": [
        -6874772799157.702,
        -1407287578313.011,
        3603594194413.0557
      ],
      "velocity_mps": [
        363.7164670222406,
        -3702.154586075929,
        -574.2810905937164
      ],
      "color": "#b88a68",
      "parent_id": "sun",
      "orbit": {
        "semi_major_axis_m": 6817506166991.381,
        "orbital_period_s": 9708728590.913866,
        "eccentricity": 0.1588553578224549,
        "inclination_deg": 29.02769838479805,
        "longitude_of_ascending_node_deg": 79.29574157902312,
        "argument_of_periapsis_deg": 297.0902369140387,
        "mean_anomaly_deg": 169.9563362599231,
        "epoch": "2026-06-14 00:00:00 TDB",
        "reference_plane": "J2000 ecliptic",
        "approximation_notes": "Horizons heliocentric osculating elements at the preset epoch; the committed Cartesian state remains the simulation seed."
      },
      "data_source": {
        "source_name": "JPL Horizons",
        "source_url": "https://ssd.jpl.nasa.gov/api/horizons.api?format=json&COMMAND=%27136472%3B%27&OBJ_DATA=NO&MAKE_EPHEM=YES&EPHEM_TYPE=ELEMENTS&CENTER=%27500%4010%27&TLIST=%272026-06-14+00%3A00%3A00%27&TLIST_TYPE=CAL&TIME_TYPE=TDB&OUT_UNITS=AU-D&CSV_FORMAT=YES&ELM_LABELS=NO",
        "catalog_id": "136472;",
        "retrieved_at": "2026-06-14",
        "citation": "JPL Horizons osculating elements and state vectors."
      }
    }
  ]
}
